VSP RF A1               
1 59135U 24043AP  26066.03073316  .00000577  00000+0  25199-4 0  9997
2 59135  97.5247 201.5379 0009431 234.6315 125.4042 15.26179596111403
STARLINK-31937          
1 59871U 24098P   26068.54000939 -.00001260  00000+0 -36279-4 0  9996
2 59871  43.0016 271.8857 0000963 267.4431  92.6310 15.27569362101907
